{
  "type": "FeatureCollection",
  "features": [
    {
      "type": "Feature",
      "properties": {
        "norad_id": 34036,
        "name": "COSMOS 2251 DEB",
        "group": "cosmos-2251-debris",
        "lat": -62.394734997791964,
        "lon": 96.99084658271642,
        "alt_km": 592.3172784675608,
        "timestamp": "2025-12-22T04:03:39.562034+00:00",
        "meta_object_name": "COSMOS 2251 DEB",
        "meta_object_id": "1993-036HX",
        "meta_epoch": "2025-12-21T09:05:49.640064",
        "meta_mean_motion": 14.95593428,
        "meta_eccentricity": 0.00106864,
        "meta_inclination": 74.0196,
        "meta_ra_of_asc_node": 131.8191,
        "meta_arg_of_pericenter": 161.0492,
        "meta_mean_anomaly": 199.1092,
        "meta_ephemeris_type": 0,
        "meta_classification_type": "U",
        "meta_norad_cat_id": 34036,
        "meta_element_set_no": 999,
        "meta_rev_at_epoch": 88699,
        "meta_bstar": 0.0030710226,
        "meta_mean_motion_dot": 0.00034269,
        "meta_mean_motion_ddot": 0,
        "tle_line1": "1 34036U 93036HX  25355.37904676  .00034269  00000+0  30710-2 0  9995",
        "tle_line2": "2 34036  74.0196 131.8191 0010686 161.0492 199.1092 14.95593428886994"
      },
      "geometry": {
        "type": "Point",
        "coordinates": [
          96.99084658271642,
          -62.394734997791964
        ]
      }
    },
    {
      "type": "Feature",
      "properties": {
        "norad_id": 34037,
        "name": "COSMOS 2251 DEB",
        "group": "cosmos-2251-debris",
        "lat": 73.18526851415903,
        "lon": 142.04986309186035,
        "alt_km": 732.9345873770517,
        "timestamp": "2025-12-22T04:03:39.562044+00:00",
        "meta_object_name": "COSMOS 2251 DEB",
        "meta_object_id": "1993-036HY",
        "meta_epoch": "2025-12-21T12:33:36.263232",
        "meta_mean_motion": 14.3468568,
        "meta_eccentricity": 0.0051804,
        "meta_inclination": 74.0511,
        "meta_ra_of_asc_node": 34.3664,
        "meta_arg_of_pericenter": 81.6263,
        "meta_mean_anomaly": 279.0758,
        "meta_ephemeris_type": 0,
        "meta_classification_type": "U",
        "meta_norad_cat_id": 34037,
        "meta_element_set_no": 999,
        "meta_rev_at_epoch": 87843,
        "meta_bstar": 0.00033637,
        "meta_mean_motion_dot": 9.41e-06,
        "meta_mean_motion_ddot": 0,
        "tle_line1": "1 34037U 93036HY  25355.52333638  .00000941  00000+0  33637-3 0  9999",
        "tle_line2": "2 34037  74.0511  34.3664 0051804  81.6263 279.0758 14.34685680878430"
      },
      "geometry": {
        "type": "Point",
        "coordinates": [
          142.04986309186035,
          73.18526851415903
        ]
      }
    },
    {
      "type": "Feature",
      "properties": {
        "norad_id": 34040,
        "name": "COSMOS 2251 DEB",
        "group": "cosmos-2251-debris",
        "lat": -66.81155737533102,
        "lon": -87.51405063911089,
        "alt_km": 1085.7752171195261,
        "timestamp": "2025-12-22T04:03:39.562054+00:00",
        "meta_object_name": "COSMOS 2251 DEB",
        "meta_object_id": "1993-036JB",
        "meta_epoch": "2025-12-21T12:46:28.866720",
        "meta_mean_motion": 13.6838786,
        "meta_eccentricity": 0.0343338,
        "meta_inclination": 73.9556,
        "meta_ra_of_asc_node": 51.3345,
        "meta_arg_of_pericenter": 2.9157,
        "meta_mean_anomaly": 357.385,
        "meta_ephemeris_type": 0,
        "meta_classification_type": "U",
        "meta_norad_cat_id": 34040,
        "meta_element_set_no": 999,
        "meta_rev_at_epoch": 83720,
        "meta_bstar": 0.00059141,
        "meta_mean_motion_dot": 7.4e-06,
        "meta_mean_motion_ddot": 0,
        "tle_line1": "1 34040U 93036JB  25355.53227855  .00000740  00000+0  59141-3 0  9992",
        "tle_line2": "2 34040  73.9556  51.3345 0343338   2.9157 357.3850 13.68387860837208"
      },
      "geometry": {
        "type": "Point",
        "coordinates": [
          -87.51405063911089,
          -66.81155737533102
        ]
      }
    },
    {
      "type": "Feature",
      "properties": {
        "norad_id": 34045,
        "name": "COSMOS 2251 DEB",
        "group": "cosmos-2251-debris",
        "lat": 56.69215741635164,
        "lon": 87.75844534157453,
        "alt_km": 777.1639067363303,
        "timestamp": "2025-12-22T04:03:39.562064+00:00",
        "meta_object_name": "COSMOS 2251 DEB",
        "meta_object_id": "1993-036JG",
        "meta_epoch": "2025-12-21T14:56:25.442016",
        "meta_mean_motion": 14.34073448,
        "meta_eccentricity": 0.0026031,
        "meta_inclination": 74.0395,
        "meta_ra_of_asc_node": 294.5782,
        "meta_arg_of_pericenter": 15.6121,
        "meta_mean_anomaly": 162.4222,
        "meta_ephemeris_type": 0,
        "meta_classification_type": "U",
        "meta_norad_cat_id": 34045,
        "meta_element_set_no": 999,
        "meta_rev_at_epoch": 88160,
        "meta_bstar": 8.0555e-05,
        "meta_mean_motion_dot": 2e-06,
        "meta_mean_motion_ddot": 0,
        "tle_line1": "1 34045U 93036JG  25355.62251669  .00000200  00000+0  80555-4 0  9992",
        "tle_line2": "2 34045  74.0395 294.5782 0026031  15.6121 162.4222 14.34073448881601"
      },
      "geometry": {
        "type": "Point",
        "coordinates": [
          87.75844534157453,
          56.69215741635164
        ]
      }
    },
    {
      "type": "Feature",
      "properties": {
        "norad_id": 34046,
        "name": "COSMOS 2251 DEB",
        "group": "cosmos-2251-debris",
        "lat": 8.716600093541704,
        "lon": 170.3505989358788,
        "alt_km": 744.7510648572561,
        "timestamp": "2025-12-22T04:03:39.562074+00:00",
        "meta_object_name": "COSMOS 2251 DEB",
        "meta_object_id": "1993-036JH",
        "meta_epoch": "2025-12-21T18:08:35.802816",
        "meta_mean_motion": 14.46539083,
        "meta_eccentricity": 0.0074476,
        "meta_inclination": 74.0389,
        "meta_ra_of_asc_node": 353.6368,
        "meta_arg_of_pericenter": 74.3693,
        "meta_mean_anomaly": 104.5202,
        "meta_ephemeris_type": 0,
        "meta_classification_type": "U",
        "meta_norad_cat_id": 34046,
        "meta_element_set_no": 999,
        "meta_rev_at_epoch": 87956,
        "meta_bstar": 0.00093861,
        "meta_mean_motion_dot": 3.474e-05,
        "meta_mean_motion_ddot": 0,
        "tle_line1": "1 34046U 93036JH  25355.75596994  .00003474  00000+0  93861-3 0  9999",
        "tle_line2": "2 34046  74.0389 353.6368 0074476  74.3693 104.5202 14.46539083879566"
      },
      "geometry": {
        "type": "Point",
        "coordinates": [
          170.3505989358788,
          8.716600093541704
        ]
      }
    },
    {
      "type": "Feature",
      "properties": {
        "norad_id": 34050,
        "name": "COSMOS 2251 DEB",
        "group": "cosmos-2251-debris",
        "lat": 36.33885966048335,
        "lon": 161.76448753091725,
        "alt_km": 890.0457329420888,
        "timestamp": "2025-12-22T04:03:39.562084+00:00",
        "meta_object_name": "COSMOS 2251 DEB",
        "meta_object_id": "1993-036JM",
        "meta_epoch": "2025-12-21T06:52:34.412160",
        "meta_mean_motion": 13.96199106,
        "meta_eccentricity": 0.0214703,
        "meta_inclination": 74.0882,
        "meta_ra_of_asc_node": 355.3911,
        "meta_arg_of_pericenter": 57.5144,
        "meta_mean_anomaly": 326.9126,
        "meta_ephemeris_type": 0,
        "meta_classification_type": "U",
        "meta_norad_cat_id": 34050,
        "meta_element_set_no": 999,
        "meta_rev_at_epoch": 85551,
        "meta_bstar": 0.00060759,
        "meta_mean_motion_dot": 9.92e-06,
        "meta_mean_motion_ddot": 0,
        "tle_line1": "1 34050U 93036JM  25355.28650940  .00000992  00000+0  60759-3 0  9996",
        "tle_line2": "2 34050  74.0882 355.3911 0214703  57.5144 326.9126 13.96199106855511"
      },
      "geometry": {
        "type": "Point",
        "coordinates": [
          161.76448753091725,
          36.33885966048335
        ]
      }
    },
    {
      "type": "Feature",
      "properties": {
        "norad_id": 34053,
        "name": "COSMOS 2251 DEB",
        "group": "cosmos-2251-debris",
        "lat": -44.27587462845734,
        "lon": -149.44095850740695,
        "alt_km": 916.6242550440902,
        "timestamp": "2025-12-22T04:03:39.562094+00:00",
        "meta_object_name": "COSMOS 2251 DEB",
        "meta_object_id": "1993-036JQ",
        "meta_epoch": "2025-12-20T16:41:14.361504",
        "meta_mean_motion": 13.49172922,
        "meta_eccentricity": 0.04226751,
        "meta_inclination": 73.8433,
        "meta_ra_of_asc_node": 229.3517,
        "meta_arg_of_pericenter": 16.5958,
        "meta_mean_anomaly": 344.8501,
        "meta_ephemeris_type": 0,
        "meta_classification_type": "U",
        "meta_norad_cat_id": 34053,
        "meta_element_set_no": 999,
        "meta_rev_at_epoch": 82791,
        "meta_bstar": 0.00050236834,
        "meta_mean_motion_dot": 5.27e-06,
        "meta_mean_motion_ddot": 0,
        "tle_line1": "1 34053U 93036JQ  25354.69530511  .00000527  00000+0  50237-3 0  9998",
        "tle_line2": "2 34053  73.8433 229.3517 0422675  16.5958 344.8501 13.49172922827916"
      },
      "geometry": {
        "type": "Point",
        "coordinates": [
          -149.44095850740695,
          -44.27587462845734
        ]
      }
    }
  ]
}